STARLINK-2022           
1 47643U 21012Z   23263.96047810  .00014438  00000+0  98680-3 0  9994
2 47643  53.0538 135.1487 0001973  63.8542 296.2650 15.06376033143986
